start=new Date('2021-11-30T00:00:00.000Z').valueOf();
sats=[{"CLASSIFICATION_TYPE":"U","MEAN_MOTION_DOT":"0.00000598","LAUNCH_DATE":"2021-05-26","BSTAR":"0.00005904100000","ECCENTRICITY":"0.00020420","OBJECT_NAME":"STARLINK-2701","PERIAPSIS":"545.809","INCLINATION":"53.0554","RCS_SIZE":"LARGE","EPHEMERIS_TYPE":"0","MEAN_ELEMENT_THEORY":"SGP4","MEAN_ANOMALY":"298.1170","MEAN_MOTION":"15.06397007","APOAPSIS":"548.637","TLE_LINE1":"1 48656U 21044U   21333.32677702  .00000598  00000-0  59041-4 0  9991","FILE":"3226898","OBJECT_ID":"2021-044U","TIME_SYSTEM":"UTC","CENTER_NAME":"EARTH","OBJECT_TYPE":"PAYLOAD","REF_FRAME":"TEME","SITE":"AFETR","RA_OF_ASC_NODE":"290.8418","COUNTRY_CODE":"US","MEAN_MOTION_DDOT":"0.0000000000000","ARG_OF_PERICENTER":"62.0025","EPOCH":"2021-11-29T07:50:33.534528","TLE_LINE2":"2 48656  53.0554 290.8418 0002042  62.0025 298.1170 15.06397007 28374","DECAY_DATE":null,"REV_AT_EPOCH":"2837","NORAD_CAT_ID":"48656","SEMIMAJOR_AXIS":"6925.358","PERIOD":"95.592","ELEMENT_SET_NO":"999","GP_ID":"190723275"},{"OBJECT_NAME":"STARLINK-2734","LAUNCH_DATE":"2021-05-26","ECCENTRICITY":"0.00022400","BSTAR":"0.00009191800000","MEAN_MOTION_DOT":"0.00001088","CLASSIFICATION_TYPE":"U","MEAN_ANOMALY":"304.9378","MEAN_ELEMENT_THEORY":"SGP4","INCLINATION":"53.0559","RCS_SIZE":"LARGE","EPHEMERIS_TYPE":"0","PERIAPSIS":"545.645","MEAN_MOTION":"15.06405566","FILE":"3227094","APOAPSIS":"548.748","TLE_LINE1":"1 48657U 21044V   21333.85385851  .00001088  00000-0  91918-4 0  9995","OBJECT_ID":"2021-044V","TIME_SYSTEM":"UTC","REF_FRAME":"TEME","OBJECT_TYPE":"PAYLOAD","CENTER_NAME":"EARTH","COUNTRY_CODE":"US","RA_OF_ASC_NODE":"288.4760","SITE":"AFETR","MEAN_MOTION_DDOT":"0.0000000000000","EPOCH":"2021-11-29T20:29:33.375264","ARG_OF_PERICENTER":"55.1821","DECAY_DATE":null,"TLE_LINE2":"2 48657  53.0559 288.4760 0002240  55.1821 304.9378 15.06405566 28455","SEMIMAJOR_AXIS":"6925.331","NORAD_CAT_ID":"48657","REV_AT_EPOCH":"2845","GP_ID":"190751730","ELEMENT_SET_NO":"999","PERIOD":"95.592"},{"MEAN_MOTION":"15.06398680","EPHEMERIS_TYPE":"0","RCS_SIZE":"LARGE","INCLINATION":"53.0564","MEAN_ANOMALY":"291.1390","MEAN_ELEMENT_THEORY":"SGP4","PERIAPSIS":"545.916","OBJECT_NAME":"STARLINK-2647","CLASSIFICATION_TYPE":"U","MEAN_MOTION_DOT":"0.00001026","LAUNCH_DATE":"2021-05-26","BSTAR":"0.00008780900000","ECCENTRICITY":"0.00018800","OBJECT_TYPE":"PAYLOAD","REF_FRAME":"TEME","CENTER_NAME":"EARTH","TIME_SYSTEM":"UTC","OBJECT_ID":"2021-044W","FILE":"3227094","APOAPSIS":"548.520","TLE_LINE1":"1 48658U 21044W   21333.91652394  .00001026  00000-0  87809-4 0  9998","EPOCH":"2021-11-29T21:59:47.668416","ARG_OF_PERICENTER":"68.9800","MEAN_MOTION_DDOT":"0.0000000000000","RA_OF_ASC_NODE":"288.2100","COUNTRY_CODE":"US","SITE":"AFETR","PERIOD":"95.592","GP_ID":"190751371","ELEMENT_SET_NO":"999","SEMIMAJOR_AXIS":"6925.353","REV_AT_EPOCH":"2846","NORAD_CAT_ID":"48658","DECAY_DATE":null,"TLE_LINE2":"2 48658  53.0564 288.2100 0001880  68.9800 291.1390 15.06398680 28466"},{"COUNTRY_CODE":"US","RA_OF_ASC_NODE":"290.8994","SITE":"AFETR","MEAN_MOTION_DDOT":"0.0000000000000","EPOCH":"2021-11-29T07:34:37.874496","ARG_OF_PERICENTER":"66.9618","DECAY_DATE":null,"TLE_LINE2":"2 48659  53.0568 290.8994 0001939  66.9618 293.1576 15.06401649 28379","SEMIMAJOR_AXIS":"6925.344","REV_AT_EPOCH":"2837","NORAD_CAT_ID":"48659","PERIOD":"95.592","GP_ID":"190723892","ELEMENT_SET_NO":"999","OBJECT_NAME":"STARLINK-2717","CLASSIFICATION_TYPE":"U","MEAN_MOTION_DOT":"0.00000426","BSTAR":"0.00004748400000","LAUNCH_DATE":"2021-05-26","ECCENTRICITY":"0.00019390","RCS_SIZE":"LARGE","EPHEMERIS_TYPE":"0","INCLINATION":"53.0568","MEAN_ELEMENT_THEORY":"SGP4","MEAN_ANOMALY":"293.1576","PERIAPSIS":"545.866","MEAN_MOTION":"15.06401649","FILE":"3226898","TLE_LINE1":"1 48659U 21044X   21333.31571614  .00000426  00000-0  47484-4 0  9996","APOAPSIS":"548.551","OBJECT_ID":"2021-044X","TIME_SYSTEM":"UTC","OBJECT_TYPE":"PAYLOAD","REF_FRAME":"TEME","CENTER_NAME":"EARTH"},{"PERIOD":"95.592","GP_ID":"190751222","ELEMENT_SET_NO":"999","REV_AT_EPOCH":"2846","NORAD_CAT_ID":"48660","SEMIMAJOR_AXIS":"6925.334","TLE_LINE2":"2 48660  53.0560 288.2302 0001962  59.3768 300.7414 15.06404770 28469","DECAY_DATE":null,"ARG_OF_PERICENTER":"59.3768","EPOCH":"2021-11-29T21:49:10.296480","MEAN_MOTION_DDOT":"0.0000000000000","SITE":"AFETR","RA_OF_ASC_NODE":"288.2302","COUNTRY_CODE":"US","CENTER_NAME":"EARTH","OBJECT_TYPE":"PAYLOAD","REF_FRAME":"TEME","TIME_SYSTEM":"UTC","OBJECT_ID":"2021-044Y","TLE_LINE1":"1 48660U 21044Y   21333.90914695  .00000921  00000-0  80696-4 0  9995","APOAPSIS":"548.558","FILE":"3227094","MEAN_MOTION":"15.06404770","PERIAPSIS":"545.840","RCS_SIZE":"LARGE","INCLINATION":"53.0560","EPHEMERIS_TYPE":"0","MEAN_ELEMENT_THEORY":"SGP4","MEAN_ANOMALY":"300.7414","CLASSIFICATION_TYPE":"U","MEAN_MOTION_DOT":"0.00000921","BSTAR":"0.00008069600000","LAUNCH_DATE":"2021-05-26","ECCENTRICITY":"0.00019620","OBJECT_NAME":"STARLINK-2688"},{"MEAN_MOTION_DDOT":"0.0000000000000","COUNTRY_CODE":"US","RA_OF_ASC_NODE":"281.1934","SITE":"AFETR","EPOCH":"2021-11-29T05:55:06.728160","ARG_OF_PERICENTER":"60.4615","DECAY_DATE":null,"TLE_LINE2":"2 48661  53.0553 281.1934 0001889  60.4615 299.6562 15.06402132 28502","PERIOD":"95.592","ELEMENT_SET_NO":"999","GP_ID":"190723765","SEMIMAJOR_AXIS":"6925.342","REV_AT_EPOCH":"2850","NORAD_CAT_ID":"48661","OBJECT_NAME":"STARLINK-2708","CLASSIFICATION_TYPE":"U","MEAN_MOTION_DOT":"0.00001144","LAUNCH_DATE":"2021-05-26","BSTAR":"0.00009567700000","ECCENTRICITY":"0.00018890","MEAN_MOTION":"15.06402132","INCLINATION":"53.0553","RCS_SIZE":"LARGE","EPHEMERIS_TYPE":"0","MEAN_ANOMALY":"299.6562","MEAN_ELEMENT_THEORY":"SGP4","PERIAPSIS":"545.899","FILE":"3226898","TLE_LINE1":"1 48661U 21044Z   21333.24660565  .00001144  00000-0  95677-4 0  9990","APOAPSIS":"548.515","OBJECT_TYPE":"PAYLOAD","REF_FRAME":"TEME","CENTER_NAME":"EARTH","TIME_SYSTEM":"UTC","OBJECT_ID":"2021-044Z"},{"MEAN_MOTION":"15.06398582","PERIAPSIS":"545.900","INCLINATION":"53.0571","RCS_SIZE":"LARGE","EPHEMERIS_TYPE":"0","MEAN_ELEMENT_THEORY":"SGP4","MEAN_ANOMALY":"299.6015","MEAN_MOTION_DOT":"0.00002479","CLASSIFICATION_TYPE":"U","LAUNCH_DATE":"2021-05-26","ECCENTRICITY":"0.00019030","BSTAR":"0.00018528000000","OBJECT_NAME":"STARLINK-2726","CENTER_NAME":"EARTH","OBJECT_TYPE":"PAYLOAD","REF_FRAME":"TEME","OBJECT_ID":"2021-044AA","TIME_SYSTEM":"UTC","APOAPSIS":"548.536","TLE_LINE1":"1 48662U 21044AA  21333.64100142  .00002479  00000-0  18528-3 0  9996","FILE":"3227094","ARG_OF_PERICENTER":"60.5164","EPOCH":"2021-11-29T15:23:02.522688","MEAN_MOTION_DDOT":"0.0000000000000","SITE":"AFETR","RA_OF_ASC_NODE":"279.4325","COUNTRY_CODE":"US","PERIOD":"95.592","ELEMENT_SET_NO":"999","GP_ID":"190751094","REV_AT_EPOCH":"2856","NORAD_CAT_ID":"48662","SEMIMAJOR_AXIS":"6925.353","TLE_LINE2":"2 48662  53.0571 279.4325 0001903  60.5164 299.6015 15.06398582 28566","DECAY_DATE":null},{"MEAN_MOTION_DOT":"-0.00002144","CLASSIFICATION_TYPE":"U","BSTAR":"-0.00012499000000","LAUNCH_DATE":"2021-05-26","ECCENTRICITY":"0.00018490","OBJECT_NAME":"STARLINK-2667","MEAN_MOTION":"15.06421861","PERIAPSIS":"545.866","EPHEMERIS_TYPE":"0","RCS_SIZE":"LARGE","INCLINATION":"53.0558","MEAN_ELEMENT_THEORY":"SGP4","MEAN_ANOMALY":"296.0026","TLE_LINE1":"1 48663U 21044AB  21333.23922289 -.00002144  00000-0 -12499-3 0  9998","APOAPSIS":"548.427","FILE":"3226898","CENTER_NAME":"EARTH","OBJECT_TYPE":"PAYLOAD","REF_FRAME":"TEME","OBJECT_ID":"2021-044AB","TIME_SYSTEM":"UTC","MEAN_MOTION_DDOT":"0.0000000000000","SITE":"AFETR","RA_OF_ASC_NODE":"281.2285","COUNTRY_CODE":"US","ARG_OF_PERICENTER":"64.1153","EPOCH":"2021-11-29T05:44:28.857696","TLE_LINE2":"2 48663  53.0558 281.2285 0001849  64.1153 296.0026 15.06421861 28509","DECAY_DATE":null,"PERIOD":"95.591","GP_ID":"190723659","ELEMENT_SET_NO":"999","REV_AT_EPOCH":"2850","NORAD_CAT_ID":"48663","SEMIMAJOR_AXIS":"6925.282"},{"EPOCH":"2021-11-29T07:14:43.986336","ARG_OF_PERICENTER":"64.8072","RA_OF_ASC_NODE":"280.9553","COUNTRY_CODE":"US","SITE":"AFETR","MEAN_MOTION_DDOT":"0.0000000000000","SEMIMAJOR_AXIS":"6925.359","NORAD_CAT_ID":"48664","REV_AT_EPOCH":"2851","GP_ID":"190723276","ELEMENT_SET_NO":"999","PERIOD":"95.592","DECAY_DATE":null,"TLE_LINE2":"2 48664  53.0568 280.9553 0001935  64.8072 295.3118 15.06396716 28513","MEAN_ELEMENT_THEORY":"SGP4","MEAN_ANOMALY":"295.3118","EPHEMERIS_TYPE":"0","RCS_SIZE":"LARGE","INCLINATION":"53.0568","PERIAPSIS":"545.884","MEAN_MOTION":"15.06396716","OBJECT_NAME":"STARLINK-2709","LAUNCH_DATE":"2021-05-26","ECCENTRICITY":"0.00019350","BSTAR":"0.00004626300000","MEAN_MOTION_DOT":"0.00000407","CLASSIFICATION_TYPE":"U","TIME_SYSTEM":"UTC","OBJECT_ID":"2021-044AC","REF_FRAME":"TEME","OBJECT_TYPE":"PAYLOAD","CENTER_NAME":"EARTH","FILE":"3226898","APOAPSIS":"548.564","TLE_LINE1":"1 48664U 21044AC  21333.30189799  .00000407  00000-0  46263-4 0  9993"},{"MEAN_ANOMALY":"294.2252","MEAN_ELEMENT_THEORY":"SGP4","EPHEMERIS_TYPE":"0","RCS_SIZE":"LARGE","INCLINATION":"53.0566","PERIAPSIS":"546.028","MEAN_MOTION":"15.06406145","OBJECT_NAME":"STARLINK-2653","LAUNCH_DATE":"2021-05-26","ECCENTRICITY":"0.00016850","BSTAR":"0.00011363000000","CLASSIFICATION_TYPE":"U","MEAN_MOTION_DOT":"0.00001412","OBJECT_ID":"2021-044AD","TIME_SYSTEM":"UTC","REF_FRAME":"TEME","OBJECT_TYPE":"PAYLOAD","CENTER_NAME":"EARTH","FILE":"3226898","TLE_LINE1":"1 48665U 21044AD  21333.38203786  .00001412  00000-0  11363-3 0  9994","APOAPSIS":"548.362","EPOCH":"2021-11-29T09:10:08.071104","ARG_OF_PERICENTER":"65.8913","COUNTRY_CODE":"US","RA_OF_ASC_NODE":"280.5941","SITE":"AFETR","MEAN_MOTION_DDOT":"0.0000000000000","SEMIMAJOR_AXIS":"6925.330","NORAD_CAT_ID":"48665","REV_AT_EPOCH":"2852","GP_ID":"190723532","ELEMENT_SET_NO":"999","PERIOD":"95.592","DECAY_DATE":null,"TLE_LINE2":"2 48665  53.0566 280.5941 0001685  65.8913 294.2252 15.06406145 28522"}];
